KUIPER-00061            
1 64521U 25134X   25285.66668981  .00014896  00000+0  18445-2 0  9996
2 64521  51.8991 162.6568 0006289 142.4765 148.4088 14.82871795  5225
KUIPER-00062            
1 64522U 25134Y   25284.96366320  .00005868  00000+0  71310-3 0  9991
2 64522  51.8976 172.8557 0008042 157.9208 202.2104 14.84666695 18025
KUIPER-00063            
1 64523U 25134Z   25284.71421010  .00004721  00000+0  65034-3 0  9996
2 64523  51.9021 176.7646 0004415  98.9645 261.1818 14.79767818 17948
KUIPER-00064            
1 64524U 25134AA  25285.37510277  .00005993  00000+0  82576-3 0  9996
2 64524  51.9005 171.0792 0005545 215.9438 144.1152 14.79344282 18080
KUIPER-00065            
1 64525U 25134AB  25285.41862673  .00006849  00000+0  92530-3 0  9994
2 64525  51.9009 175.8548 0011466 150.9238 209.2365 14.79959787 18004
KUIPER-00066            
1 64526U 25134AC  25285.66643146  .00024307  00000+0  11868-2 0  9997
2 64526  51.8874 161.9105 0004936 157.5492 202.5703 15.18131216 18238
KUIPER-00069            
1 64816U 25151A   25285.66668981 -.01102782  00000+0 -50072-1 0  9998
2 64816  51.8799 221.4857 0008409 117.2125 262.0956 15.23332534  5900
KUIPER-00070            
1 64817U 25151B   25285.29030778  .00092964  00000+0  12051-1 0  9997
2 64817  51.8982 241.7878 0009705 119.9798 240.2129 14.79922746 14447
